start=new Date('2022-02-25T00:00:00.000Z').valueOf();
sats=[{"GP_ID":"196899776","EPHEMERIS_TYPE":"0","TLE_LINE1":"1 46130U 20057P   22055.72269714  .00001679  00000-0  13159-3 0  9995","MEAN_MOTION":"15.06399486","RCS_SIZE":"LARGE","TLE_LINE2":"2 46130  53.0543  53.5092 0001633  61.8623 298.2531 15.06399486 85711","ARG_OF_PERICENTER":"61.8623","MEAN_MOTION_DDOT":"0.0000000000000","REF_FRAME":"TEME","OBJECT_ID":"2020-057P","TIME_SYSTEM":"UTC","REV_AT_EPOCH":"8571","EPOCH":"2022-02-24T17:20:41.032896","MEAN_MOTION_DOT":"0.00001679","RA_OF_ASC_NODE":"53.5092","ECCENTRICITY":"0.00016330","MEAN_ANOMALY":"298.2531","LAUNCH_DATE":"2020-08-18","ELEMENT_SET_NO":"999","NORAD_CAT_ID":"46130","INCLINATION":"53.0543","MEAN_ELEMENT_THEORY":"SGP4","OBJECT_NAME":"STARLINK-1624","SEMIMAJOR_AXIS":"6925.350","DECAY_DATE":null,"COUNTRY_CODE":"US","OBJECT_TYPE":"PAYLOAD","APOAPSIS":"548.346","BSTAR":"0.00013159000000","CLASSIFICATION_TYPE":"U","CENTER_NAME":"EARTH","SITE":"AFETR","PERIOD":"95.592","FILE":"3320325","PERIAPSIS":"546.084"},{"CENTER_NAME":"EARTH","CLASSIFICATION_TYPE":"U","BSTAR":"-0.00004109800000","FILE":"3320325","PERIAPSIS":"546.211","PERIOD":"95.593","SITE":"AFETR","DECAY_DATE":null,"SEMIMAJOR_AXIS":"6925.367","OBJECT_NAME":"STARLINK-1625","APOAPSIS":"548.254","OBJECT_TYPE":"PAYLOAD","COUNTRY_CODE":"US","MEAN_ANOMALY":"294.5218","ECCENTRICITY":"0.00014750","RA_OF_ASC_NODE":"73.4667","MEAN_ELEMENT_THEORY":"SGP4","NORAD_CAT_ID":"46131","INCLINATION":"53.0553","ELEMENT_SET_NO":"999","LAUNCH_DATE":"2020-08-18","MEAN_MOTION":"15.06393948","TLE_LINE1":"1 46131U 20057Q   22055.73560348 -.00000893  00000-0 -41098-4 0  9997","RCS_SIZE":"LARGE","EPHEMERIS_TYPE":"0","GP_ID":"196900526","MEAN_MOTION_DOT":"-0.00000893","EPOCH":"2022-02-24T17:39:16.140672","REV_AT_EPOCH":"8544","TIME_SYSTEM":"UTC","TLE_LINE2":"2 46131  53.0553  73.4667 0001475  65.5925 294.5218 15.06393948 85440","OBJECT_ID":"2020-057Q","MEAN_MOTION_DDOT":"0.0000000000000","ARG_OF_PERICENTER":"65.5925","REF_FRAME":"TEME"},{"MEAN_ELEMENT_THEORY":"SGP4","LAUNCH_DATE":"2020-08-18","ELEMENT_SET_NO":"999","INCLINATION":"53.0541","NORAD_CAT_ID":"46132","MEAN_ANOMALY":"304.7187","RA_OF_ASC_NODE":"94.1810","ECCENTRICITY":"0.00017210","EPOCH":"2022-02-24T13:48:22.687776","MEAN_MOTION_DOT":"0.00001442","MEAN_MOTION_DDOT":"0.0000000000000","TLE_LINE2":"2 46132  53.0541  94.1810 0001721  55.3964 304.7187 15.06400864 85144","REF_FRAME":"TEME","OBJECT_ID":"2020-057R","ARG_OF_PERICENTER":"55.3964","TIME_SYSTEM":"UTC","REV_AT_EPOCH":"8514","GP_ID":"196899274","EPHEMERIS_TYPE":"0","TLE_LINE1":"1 46132U 20057R   22055.57526259  .00001442  00000-0  11569-3 0  9991","MEAN_MOTION":"15.06400864","RCS_SIZE":"LARGE","FILE":"3320325","PERIAPSIS":"546.019","SITE":"AFETR","PERIOD":"95.592","CENTER_NAME":"EARTH","CLASSIFICATION_TYPE":"U","BSTAR":"0.00011569000000","OBJECT_TYPE":"PAYLOAD","APOAPSIS":"548.403","COUNTRY_CODE":"US","SEMIMAJOR_AXIS":"6925.346","DECAY_DATE":null,"OBJECT_NAME":"STARLINK-1630"},{"APOAPSIS":"548.540","OBJECT_TYPE":"PAYLOAD","COUNTRY_CODE":"US","DECAY_DATE":null,"SEMIMAJOR_AXIS":"6925.352","OBJECT_NAME":"STARLINK-1637","FILE":"3320325","PERIAPSIS":"545.893","PERIOD":"95.592","SITE":"AFETR","CENTER_NAME":"EARTH","CLASSIFICATION_TYPE":"U","BSTAR":"0.00014400000000","MEAN_MOTION_DOT":"0.00001864","EPOCH":"2022-02-24T16:59:27.401856","REV_AT_EPOCH":"8571","TIME_SYSTEM":"UTC","TLE_LINE2":"2 46133  53.0531  53.5682 0001911  51.3791 308.7369 15.06399028 85713","MEAN_MOTION_DDOT":"0.0000000000000","REF_FRAME":"TEME","ARG_OF_PERICENTER":"51.3791","OBJECT_ID":"2020-057S","MEAN_MOTION":"15.06399028","TLE_LINE1":"1 46133U 20057S   22055.70795604  .00001864  00000-0  14400-3 0  9994","RCS_SIZE":"LARGE","EPHEMERIS_TYPE":"0","GP_ID":"196899025","MEAN_ELEMENT_THEORY":"SGP4","INCLINATION":"53.0531","NORAD_CAT_ID":"46133","ELEMENT_SET_NO":"999","LAUNCH_DATE":"2020-08-18","MEAN_ANOMALY":"308.7369","ECCENTRICITY":"0.00019110","RA_OF_ASC_NODE":"53.5682"},{"OBJECT_TYPE":"PAYLOAD","APOAPSIS":"548.185","COUNTRY_CODE":"US","DECAY_DATE":null,"SEMIMAJOR_AXIS":"6925.362","OBJECT_NAME":"STARLINK-1638","FILE":"3320325","PERIAPSIS":"546.268","PERIOD":"95.592","SITE":"AFETR","CENTER_NAME":"EARTH","CLASSIFICATION_TYPE":"U","BSTAR":"-0.00000201380000","EPOCH":"2022-02-24T17:04:45.960384","MEAN_MOTION_DOT":"-0.00000311","TIME_SYSTEM":"UTC","REV_AT_EPOCH":"8446","OBJECT_ID":"2020-057T","TLE_LINE2":"2 46134  53.0540  53.5560 0001384  74.1748 285.9394 15.06395682 84465","MEAN_MOTION_DDOT":"0.0000000000000","REF_FRAME":"TEME","ARG_OF_PERICENTER":"74.1748","EPHEMERIS_TYPE":"0","TLE_LINE1":"1 46134U 20057T   22055.71164306 -.00000311  00000-0 -20138-5 0  9990","MEAN_MOTION":"15.06395682","RCS_SIZE":"LARGE","GP_ID":"196900276","MEAN_ELEMENT_THEORY":"SGP4","ELEMENT_SET_NO":"999","NORAD_CAT_ID":"46134","INCLINATION":"53.0540","LAUNCH_DATE":"2020-08-18","MEAN_ANOMALY":"285.9394","ECCENTRICITY":"0.00013840","RA_OF_ASC_NODE":"53.5560"},{"COUNTRY_CODE":"US","APOAPSIS":"548.376","OBJECT_TYPE":"PAYLOAD","OBJECT_NAME":"STARLINK-1639","DECAY_DATE":null,"SEMIMAJOR_AXIS":"6925.382","PERIOD":"95.593","SITE":"AFETR","FILE":"3320325","PERIAPSIS":"546.119","BSTAR":"-0.00004025700000","CLASSIFICATION_TYPE":"U","CENTER_NAME":"EARTH","REV_AT_EPOCH":"8446","TIME_SYSTEM":"UTC","TLE_LINE2":"2 46135  53.0550  53.4936 0001629  61.4255 298.6898 15.06388958 84465","REF_FRAME":"TEME","MEAN_MOTION_DDOT":"0.0000000000000","OBJECT_ID":"2020-057U","ARG_OF_PERICENTER":"61.4255","MEAN_MOTION_DOT":"-0.00000881","EPOCH":"2022-02-24T17:26:00.565152","MEAN_MOTION":"15.06388958","TLE_LINE1":"1 46135U 20057U   22055.72639543 -.00000881  00000-0 -40257-4 0  9997","RCS_SIZE":"LARGE","EPHEMERIS_TYPE":"0","GP_ID":"196900027","INCLINATION":"53.0550","NORAD_CAT_ID":"46135","ELEMENT_SET_NO":"999","LAUNCH_DATE":"2020-08-18","MEAN_ELEMENT_THEORY":"SGP4","ECCENTRICITY":"0.00016290","RA_OF_ASC_NODE":"53.4936","MEAN_ANOMALY":"298.6898"},{"MEAN_ELEMENT_THEORY":"SGP4","LAUNCH_DATE":"2020-08-18","ELEMENT_SET_NO":"999","NORAD_CAT_ID":"46136","INCLINATION":"53.0540","MEAN_ANOMALY":"304.0996","RA_OF_ASC_NODE":"83.2753","ECCENTRICITY":"0.00015790","EPOCH":"2022-02-24T18:36:19.872864","MEAN_MOTION_DOT":"0.00000772","TLE_LINE2":"2 46136  53.0540  83.2753 0001579  56.0143 304.0996 15.06392483 84057","MEAN_MOTION_DDOT":"0.0000000000000","OBJECT_ID":"2020-057V","ARG_OF_PERICENTER":"56.0143","REF_FRAME":"TEME","TIME_SYSTEM":"UTC","REV_AT_EPOCH":"8405","GP_ID":"196898775","EPHEMERIS_TYPE":"0","MEAN_MOTION":"15.06392483","TLE_LINE1":"1 46136U 20057V   22055.77523001  .00000772  00000-0  70734-4 0  9994","RCS_SIZE":"LARGE","FILE":"3320325","PERIAPSIS":"546.143","SITE":"AFETR","PERIOD":"95.593","CENTER_NAME":"EARTH","CLASSIFICATION_TYPE":"U","BSTAR":"0.00007073400000","OBJECT_TYPE":"PAYLOAD","APOAPSIS":"548.330","COUNTRY_CODE":"US","SEMIMAJOR_AXIS":"6925.372","DECAY_DATE":null,"OBJECT_NAME":"STARLINK-1643"},{"CLASSIFICATION_TYPE":"U","CENTER_NAME":"EARTH","BSTAR":"-0.00000185610000","PERIAPSIS":"546.137","FILE":"3318573","PERIOD":"95.593","SITE":"AFETR","DECAY_DATE":null,"SEMIMAJOR_AXIS":"6925.384","OBJECT_NAME":"STARLINK-1586","APOAPSIS":"548.361","OBJECT_TYPE":"PAYLOAD","COUNTRY_CODE":"US","MEAN_ANOMALY":"300.1286","ECCENTRICITY":"0.00016060","RA_OF_ASC_NODE":"74.3750","MEAN_ELEMENT_THEORY":"SGP4","INCLINATION":"53.0561","NORAD_CAT_ID":"46137","ELEMENT_SET_NO":"999","LAUNCH_DATE":"2020-08-18","TLE_LINE1":"1 46137U 20057W   22055.52919077 -.00000309  00000-0 -18561-5 0  9999","RCS_SIZE":"LARGE","MEAN_MOTION":"15.06388379","EPHEMERIS_TYPE":"0","GP_ID":"196839341","MEAN_MOTION_DOT":"-0.00000309","EPOCH":"2022-02-24T12:42:02.082528","REV_AT_EPOCH":"8415","TIME_SYSTEM":"UTC","REF_FRAME":"TEME","TLE_LINE2":"2 46137  53.0561  74.3750 0001606  59.9862 300.1286 15.06388379 84159","MEAN_MOTION_DDOT":"0.0000000000000","OBJECT_ID":"2020-057W","ARG_OF_PERICENTER":"59.9862"},{"TIME_SYSTEM":"UTC","REV_AT_EPOCH":"8391","REF_FRAME":"TEME","TLE_LINE2":"2 46138  53.0537  93.1958 0001941  49.7518 310.3640 15.06382284 83918","MEAN_MOTION_DDOT":"0.0000000000000","OBJECT_ID":"2020-057X","ARG_OF_PERICENTER":"49.7518","EPOCH":"2022-02-24T19:01:32.576160","MEAN_MOTION_DOT":"-0.00001844","EPHEMERIS_TYPE":"0","TLE_LINE1":"1 46138U 20057X   22055.79273815 -.00001844  00000-0 -10499-3 0  9997","RCS_SIZE":"LARGE","MEAN_MOTION":"15.06382284","GP_ID":"196899777","ELEMENT_SET_NO":"999","NORAD_CAT_ID":"46138","INCLINATION":"53.0537","LAUNCH_DATE":"2020-08-18","MEAN_ELEMENT_THEORY":"SGP4","ECCENTRICITY":"0.00019410","RA_OF_ASC_NODE":"93.1958","MEAN_ANOMALY":"310.3640","COUNTRY_CODE":"US","OBJECT_TYPE":"PAYLOAD","APOAPSIS":"548.612","OBJECT_NAME":"STARLINK-1590","DECAY_DATE":null,"SEMIMAJOR_AXIS":"6925.403","PERIOD":"95.593","SITE":"AFETR","PERIAPSIS":"545.924","FILE":"3320325","BSTAR":"-0.00010499000000","CENTER_NAME":"EARTH","CLASSIFICATION_TYPE":"U"},{"GP_ID":"196900527","EPHEMERIS_TYPE":"0","TLE_LINE1":"1 46140U 20057Z   22055.68584462 -.00002637  00000-0 -15823-3 0  9998","RCS_SIZE":"LARGE","MEAN_MOTION":"15.06385713","MEAN_MOTION_DDOT":"0.0000000000000","TLE_LINE2":"2 46140  53.0536  53.6750 0001986  41.7050 318.4090 15.06385713 85722","ARG_OF_PERICENTER":"41.7050","OBJECT_ID":"2020-057Z","REF_FRAME":"TEME","TIME_SYSTEM":"UTC","REV_AT_EPOCH":"8572","EPOCH":"2022-02-24T16:27:36.975168","MEAN_MOTION_DOT":"-0.00002637","RA_OF_ASC_NODE":"53.6750","ECCENTRICITY":"0.00019860","MEAN_ANOMALY":"318.4090","LAUNCH_DATE":"2020-08-18","ELEMENT_SET_NO":"999","NORAD_CAT_ID":"46140","INCLINATION":"53.0536","MEAN_ELEMENT_THEORY":"SGP4","OBJECT_NAME":"STARLINK-1594","SEMIMAJOR_AXIS":"6925.392","DECAY_DATE":null,"COUNTRY_CODE":"US","OBJECT_TYPE":"PAYLOAD","APOAPSIS":"548.633","BSTAR":"-0.00015823000000","CENTER_NAME":"EARTH","CLASSIFICATION_TYPE":"U","SITE":"AFETR","PERIOD":"95.593","PERIAPSIS":"545.882","FILE":"3320325"}];
